[{"type":"Feature","id":"way/195508114","properties":{"timestamp":"2015-08-28T11:07:19Z","version":"2","changeset":"33641137","user":"schnelli","uid":"225842","addr:city":"La Tour-de-Peilz","addr:country":"CH","addr:housenumber":"5","addr:postcode":"1814","addr:street":"Chemin du Crêt-Richard","building":"yes","source":"Orthophoto Cartoriviera 2012","id":"way/195508114"},"geometry":{"type":"Polygon","coordinates":[[[6.8651692,46.461677],[6.8652809,46.4617462],[6.8653805,46.4616698],[6.8652688,46.4616007],[6.8651692,46.461677]]]}},{"type":"Feature","id":"way/195508129","properties":{"timestamp":"2015-08-28T11:07:18Z","version":"3","changeset":"33641137","user":"schnelli","uid":"225842","addr:city":"La Tour-de-Peilz","addr:country":"CH","addr:housenumber":"15","addr:postcode":"1814","addr:street":"Chemin du Crêt-Richard","building":"yes","source":"Orthophoto Cartoriviera 2012","id":"way/195508129"},"geometry":{"type":"Polygon","coordinates":[[[6.8638126,46.4616316],[6.8639998,46.4615447],[6.8639771,46.4615215],[6.8640036,46.4615092],[6.8639488,46.4614532],[6.8639227,46.4614653],[6.8638921,46.4614341],[6.8637051,46.461521],[6.8637424,46.4615591],[6.8637297,46.461565],[6.863774,46.4616102],[6.8637862,46.4616046],[6.8638126,46.4616316]]]}},{"type":"Feature","id":"way/197901568","properties":{"timestamp":"2015-08-28T07:15:28Z","version":"2","changeset":"33636782","user":"schnelli","uid":"225842","addr:city":"La Tour-de-Peilz","addr:country":"CH","addr:housenumber":"91","addr:postcode":"1814","addr:street":"Chemin des Murs Blancs","building":"yes","source":"Orthophoto Cartoriviera 2012","id":"way/197901568"},"geometry":{"type":"Polygon","coordinates":[[[6.8648661,46.4607106],[6.8649922,46.4607868],[6.8650788,46.4607188],[6.8649527,46.4606426],[6.8648661,46.4607106]]]}},{"type":"Feature","id":"way/197901645","properties":{"timestamp":"2015-08-28T07:15:28Z","version":"2","changeset":"33636782","user":"schnelli","uid":"225842","addr:city":"La Tour-de-Peilz","addr:country":"CH","addr:housenumber":"97","addr:postcode":"1814","addr:street":"Chemin des Murs Blancs","building":"yes","source":"Orthophoto Cartoriviera 2012","id":"way/197901645"},"geometry":{"type":"Polygon","coordinates":[[[6.8655541,46.4610891],[6.8655718,46.4611909],[6.8657038,46.46118],[6.8656861,46.4610782],[6.8655541,46.4610891]]]}},{"type":"Feature","id":"way/197901679","properties":{"timestamp":"2015-08-28T07:15:29Z","version":"2","changeset":"33636782","user":"schnelli","uid":"225842","addr:city":"La Tour-de-Peilz","addr:country":"CH","addr:housenumber":"97","addr:postcode":"1814","addr:street":"Chemin des Murs Blancs","building":"yes","source":"Orthophoto Cartoriviera 2012","id":"way/197901679"},"geometry":{"type":"Polygon","coordinates":[[[6.865489,46.4608472],[6.8654908,46.4609445],[6.8656485,46.4609431],[6.8656467,46.4608458],[6.865489,46.4608472]]]}},{"type":"Feature","id":"way/197901823","properties":{"timestamp":"2015-08-28T07:15:28Z","version":"2","changeset":"33636782","user":"schnelli","uid":"225842","addr:city":"La Tour-de-Peilz","addr:country":"CH","addr:housenumber":"93","addr:postcode":"1814","addr:street":"Chemin des Murs Blancs","building":"yes","source":"Orthophoto Cartoriviera 2012","id":"way/197901823"},"geometry":{"type":"Polygon","coordinates":[[[6.8652853,46.4608539],[6.8653469,46.4607525],[6.8652188,46.4607155],[6.8651572,46.460817],[6.8652123,46.4608329],[6.8652853,46.4608539]]]}},{"type":"Feature","id":"way/197901824","properties":{"timestamp":"2015-08-28T07:15:31Z","version":"2","changeset":"33636782","user":"schnelli","uid":"225842","addr:city":"La Tour-de-Peilz","addr:country":"CH","addr:postcode":"1814","addr:street":"Chemin des Murs Blancs","building":"yes","source":"Orthophoto Cartoriviera 2012","id":"way/197901824"},"geometry":{"type":"Polygon","coordinates":[[[6.8647391,46.4609865],[6.8648389,46.461043],[6.8648966,46.4609946],[6.8647968,46.4609381],[6.8647391,46.4609865]]]}},{"type":"Feature","id":"way/204312122","properties":{"timestamp":"2020-09-29T15:59:05Z","version":"2","changeset":"91718170","user":"floyd70","uid":"3068030","addr:city":"La Tour-de-Peilz","addr:housenumber":"3","addr:street":"Route de Sichoz","building":"yes","id":"way/204312122"},"geometry":{"type":"Polygon","coordinates":[[[6.8665818,46.4604889],[6.8665736,46.460495],[6.8665449,46.4605165],[6.8664896,46.4605579],[6.8665707,46.4606093],[6.8665446,46.4606289],[6.8666493,46.4606952],[6.866736,46.4606303],[6.8666564,46.4605799],[6.866688,46.4605562],[6.8665818,46.4604889]]]}},{"type":"Feature","id":"way/204312124","properties":{"timestamp":"2013-02-05T21:06:56Z","version":"1","changeset":"14926928","user":"Papilli","uid":"229613","building":"yes","id":"way/204312124"},"geometry":{"type":"Polygon","coordinates":[[[6.8665736,46.460495],[6.8665126,46.4604544],[6.8664831,46.4604754],[6.8665449,46.4605165],[6.8665736,46.460495]]]}},{"type":"Feature","id":"way/204312407","properties":{"timestamp":"2015-08-28T13:04:35Z","version":"2","changeset":"33643738","user":"schnelli","uid":"225842","addr:city":"La Tour-de-Peilz","addr:country":"CH","addr:housenumber":"101","addr:postcode":"1814","addr:street":"Chemin des Murs-Blancs","building":"yes","source":"Orthophoto Cartoriviera 2012","id":"way/204312407"},"geometry":{"type":"Polygon","coordinates":[[[6.8660887,46.4607933],[6.8659767,46.4608133],[6.8659823,46.4608282],[6.8659081,46.4608415],[6.8659323,46.4609058],[6.8660065,46.4608925],[6.866011,46.4609043],[6.8661229,46.4608843],[6.8661185,46.4608725],[6.8661853,46.4608606],[6.8661597,46.4607924],[6.8660928,46.4608044],[6.8660887,46.4607933]]]}},{"type":"Feature","id":"way/204312408","properties":{"timestamp":"2015-08-28T13:04:35Z","version":"2","changeset":"33643738","user":"schnelli","uid":"225842","addr:city":"La Tour-de-Peilz","addr:country":"CH","addr:housenumber":"103","addr:postcode":"1814","addr:street":"Chemin des Murs-Blancs","building":"yes","source":"Orthophoto Cartoriviera 2012","id":"way/204312408"},"geometry":{"type":"Polygon","coordinates":[[[6.8661625,46.4610343],[6.8662009,46.4611298],[6.8663928,46.4610932],[6.8663544,46.4609977],[6.8661625,46.4610343]]]}},{"type":"Feature","id":"way/204312410","properties":{"timestamp":"2015-08-28T13:04:35Z","version":"2","changeset":"33643738","user":"schnelli","uid":"225842","addr:city":"La Tour-de-Peilz","addr:country":"CH","addr:housenumber":"99","addr:postcode":"1814","addr:street":"Chemin des Murs-Blancs","building":"yes","source":"Orthophoto Cartoriviera 2012","id":"way/204312410"},"geometry":{"type":"Polygon","coordinates":[[[6.8660275,46.4610897],[6.8659372,46.4611048],[6.8659475,46.4611343],[6.8659135,46.4611399],[6.865948,46.4612384],[6.8661096,46.4612115],[6.8660751,46.461113],[6.8660378,46.4611192],[6.8660275,46.4610897]]]}},{"type":"Feature","id":"way/356052333","properties":{"timestamp":"2015-08-28T11:07:18Z","version":"2","changeset":"33641137","user":"schnelli","uid":"225842","addr:city":"La Tour-de-Peilz","addr:country":"CH","addr:housenumber":"17","addr:postcode":"1814","addr:street":"Chemin du Crêt-Richard","building":"yes","source":"Orthophoto Cartoriviera 2012","id":"way/356052333"},"geometry":{"type":"Polygon","coordinates":[[[6.8635559,46.4617234],[6.8637433,46.4616365],[6.8636353,46.461526],[6.8634484,46.4616127],[6.8634857,46.4616509],[6.863473,46.4616568],[6.8635173,46.461702],[6.8635295,46.4616964],[6.8635559,46.4617234]]]}},{"type":"Feature","id":"way/367945386","properties":{"timestamp":"2015-08-28T07:15:24Z","version":"1","changeset":"33636782","user":"schnelli","uid":"225842","addr:city":"La Tour-de-Peilz","addr:country":"CH","addr:postcode":"1814","building":"yes","source":"Orthophoto Cartoriviera 2012","id":"way/367945386"},"geometry":{"type":"Polygon","coordinates":[[[6.864327,46.4612412],[6.8644007,46.4612441],[6.8644037,46.4612088],[6.86433,46.4612059],[6.864327,46.4612412]]]}},{"type":"Feature","id":"way/367945388","properties":{"timestamp":"2015-08-28T07:15:24Z","version":"1","changeset":"33636782","user":"schnelli","uid":"225842","addr:city":"La Tour-de-Peilz","addr:country":"CH","addr:postcode":"1814","addr:street":"Chemin des Murs Blancs","building":"yes","source":"Orthophoto Cartoriviera 2012","id":"way/367945388"},"geometry":{"type":"Polygon","coordinates":[[[6.8656704,46.4609494],[6.8657168,46.4609487],[6.8657147,46.460887],[6.8656683,46.4608877],[6.8656704,46.4609494]]]}},{"type":"Feature","id":"way/367945391","properties":{"timestamp":"2015-08-28T07:15:25Z","version":"1","changeset":"33636782","user":"schnelli","uid":"225842","addr:city":"La Tour-de-Peilz","addr:country":"CH","addr:postcode":"1814","addr:street":"Chemin des Murs Blancs","building":"yes","source":"Orthophoto Cartoriviera 2012","id":"way/367945391"},"geometry":{"type":"Polygon","coordinates":[[[6.8647138,46.4608911],[6.8647968,46.4609381],[6.8648424,46.4608999],[6.8647594,46.4608529],[6.8647138,46.4608911]]]}},{"type":"Feature","id":"way/367945394","properties":{"timestamp":"2015-08-28T07:15:25Z","version":"1","changeset":"33636782","user":"schnelli","uid":"225842","addr:city":"La Tour-de-Peilz","addr:country":"CH","addr:postcode":"1814","addr:street":"Chemin des Murs Blancs","building":"yes","source":"Orthophoto Cartoriviera 2012","id":"way/367945394"},"geometry":{"type":"Polygon","coordinates":[[[6.8645566,46.4608832],[6.864656,46.4609395],[6.8647138,46.4608911],[6.8646143,46.4608348],[6.8645566,46.4608832]]]}},{"type":"Feature","id":"way/367945398","properties":{"timestamp":"2015-08-28T07:15:25Z","version":"1","changeset":"33636782","user":"schnelli","uid":"225842","addr:city":"La Tour-de-Peilz","addr:country":"CH","addr:postcode":"1814","addr:street":"Chemin des Murs Blancs","building":"yes","source":"Orthophoto Cartoriviera 2012","id":"way/367945398"},"geometry":{"type":"Polygon","coordinates":[[[6.8651572,46.460817],[6.8651351,46.4608106],[6.8651073,46.4608564],[6.8651845,46.4608786],[6.8652123,46.4608329],[6.8651572,46.460817]]]}},{"type":"Feature","id":"way/852791690","properties":{"timestamp":"2020-09-29T15:35:12Z","version":"1","changeset":"91717114","user":"floyd70","uid":"3068030","addr:city":"La Tour-de-Peilz","addr:housenumber":"47","addr:street":"Chemin des Murs-Blancs","building":"yes","id":"way/852791690"},"geometry":{"type":"Polygon","coordinates":[[[6.863718,46.4605652],[6.863797,46.4606084],[6.8640236,46.4604244],[6.8640297,46.4603714],[6.8640702,46.4603519],[6.8640965,46.4602682],[6.8639204,46.4602236],[6.8639467,46.4603338],[6.8638496,46.4603784],[6.8638637,46.4604606],[6.863718,46.4605652]]]}},{"type":"Feature","id":"way/852793461","properties":{"timestamp":"2020-09-29T15:42:53Z","version":"1","changeset":"91717481","user":"floyd70","uid":"3068030","building":"yes","id":"way/852793461"},"geometry":{"type":"Polygon","coordinates":[[[6.864971,46.4604357],[6.8650848,46.4605133],[6.8653015,46.4603625],[6.8651878,46.460285],[6.864971,46.4604357]]]}},{"type":"Feature","id":"way/852793462","properties":{"timestamp":"2020-09-29T15:42:53Z","version":"1","changeset":"91717481","user":"floyd70","uid":"3068030","addr:city":"La Tour-de-Peilz","addr:housenumber":"79","addr:street":"Chemin des Murs-Blancs","building":"yes","id":"way/852793462"},"geometry":{"type":"Polygon","coordinates":[[[6.865444,46.4605587],[6.8655419,46.4606147],[6.8656443,46.4605299],[6.8655464,46.4604739],[6.865444,46.4605587]]]}},{"type":"Feature","id":"way/855320527","properties":{"timestamp":"2020-10-05T09:46:58Z","version":"2","changeset":"91975009","user":"floyd70","uid":"3068030","addr:city":"La Tour-de-Peilz","addr:housenumber":"11b","addr:street":"Chemin de Crêt-Richard","building":"yes","id":"way/855320527"},"geometry":{"type":"Polygon","coordinates":[[[6.8640984,46.461502],[6.8641922,46.461538],[6.8642121,46.4615134],[6.8642558,46.4614594],[6.8641619,46.4614234],[6.8640984,46.461502]]]}},{"type":"Feature","id":"way/855320528","properties":{"timestamp":"2020-10-05T09:46:58Z","version":"2","changeset":"91975009","user":"floyd70","uid":"3068030","addr:city":"La Tour-de-Peilz","addr:housenumber":"11a","addr:street":"Chemin de Crêt-Richard","building":"yes","id":"way/855320528"},"geometry":{"type":"Polygon","coordinates":[[[6.8642121,46.4615134],[6.8643066,46.4615497],[6.8643704,46.4614709],[6.8642763,46.4614347],[6.8642558,46.4614594],[6.8642121,46.4615134]]]}},{"type":"Feature","id":"way/855320529","properties":{"timestamp":"2020-10-05T09:46:58Z","version":"2","changeset":"91975009","user":"floyd70","uid":"3068030","addr:city":"La Tour-de-Peilz","addr:housenumber":"9b","addr:street":"Chemin de Crêt-Richard","building":"yes","id":"way/855320529"},"geometry":{"type":"Polygon","coordinates":[[[6.8643795,46.4615831],[6.8644732,46.4616188],[6.8644941,46.4615928],[6.8645368,46.46154],[6.8644429,46.4615042],[6.8643795,46.4615831]]]}},{"type":"Feature","id":"way/855320530","properties":{"timestamp":"2020-10-05T09:46:58Z","version":"2","changeset":"91975009","user":"floyd70","uid":"3068030","addr:city":"La Tour-de-Peilz","addr:housenumber":"9a","addr:street":"Chemin de Crêt-Richard","building":"yes","id":"way/855320530"},"geometry":{"type":"Polygon","coordinates":[[[6.8644941,46.4615928],[6.8645877,46.4616286],[6.8646511,46.4615501],[6.8645576,46.4615143],[6.8645368,46.46154],[6.8644941,46.4615928]]]}},{"type":"Feature","id":"way/855320531","properties":{"timestamp":"2020-10-05T09:46:58Z","version":"2","changeset":"91975009","user":"floyd70","uid":"3068030","addr:city":"La Tour-de-Peilz","addr:housenumber":"7b","addr:street":"Chemin de Crêt-Richard","building":"yes","id":"way/855320531"},"geometry":{"type":"Polygon","coordinates":[[[6.8646656,46.4616474],[6.8647593,46.461683],[6.8647738,46.461666],[6.8648232,46.4616041],[6.864729,46.4615683],[6.8646656,46.4616474]]]}},{"type":"Feature","id":"way/855320532","properties":{"timestamp":"2020-10-05T09:46:58Z","version":"2","changeset":"91975009","user":"floyd70","uid":"3068030","addr:city":"La Tour-de-Peilz","addr:housenumber":"7a","addr:street":"Chemin de Crêt-Richard","building":"yes","id":"way/855320532"},"geometry":{"type":"Polygon","coordinates":[[[6.8647738,46.461666],[6.8648675,46.4617015],[6.8649308,46.4616221],[6.8648371,46.4615866],[6.8648232,46.4616041],[6.8647738,46.461666]]]}}]